IPERDRONE.0             
1 60520U 24149BE  26197.19900066  .00055332  00000+0  43767-3 0  9996
2 60520  97.3771 291.9401 0004128 166.4736 193.6638 15.71187423107466
TRANSPORTER-11 OBJECT BF
1 60521U 24149BF  26196.80132246  .01016119  63981-3  97569-3 0  9992
2 60521  97.3807 295.4195 0010931 249.1592 110.8522 16.11780645107647
CONNECTA IOT-2          
1 60522U 24149BG  26197.13388911  .00002264  00000+0  95808-4 0  9991
2 60522  97.3834 274.8436 0005656 209.0180 151.0744 15.24198613106309
CONNECTA IOT-4          
1 60524U 24149BJ  26196.74772242  .00013274  00000+0  30100-3 0  9999
2 60524  97.3799 281.4758 0006044 173.3222 186.8107 15.43184698106739
ORESAT0.5               
1 60525U 24149BK  26196.73391617  .00013587  00000+0  27893-3 0  9994
2 60525  97.3728 283.1914 0006231 162.7489 197.3973 15.46122446106880
DEIMOS                  
1 60526U 24149BL  26196.78248918  .00013130  00000+0  27815-3 0  9993
2 60526  97.3782 283.3664 0006023 168.4372 191.7016 15.45207671106865
CUAVA-2                 
1 60527U 24149BM  26197.19517421  .00006551  00000+0  18464-3 0  9997
2 60527  97.3722 278.7754 0006959 176.0247 184.1053 15.36747238106621
ERNST                   
1 60528U 24149BN  26197.02766330  .00007765  00000+0  19725-3 0  9994
2 60528  97.3808 280.9773 0006265 176.3954 183.7338 15.39907616106713
TORO                    
1 60530U 24149BQ  26197.12556242  .00000491  00000+0  48254-4 0  9996
2 60530  97.6775 271.2533 0001134 101.3883 258.7466 14.96517485104286
HYPSO-2                 
1 60531U 24149BR  26196.43972395  .00001427  00000+0  12280-3 0  9990
2 60531  97.6841 272.2902 0001783  98.4846 261.6579 14.98934859104285
LEMU NGE                
1 60532U 24149BS  26197.16614580  .00001187  00000+0  11353-3 0  9994
2 60532  97.6837 271.5403 0000579  88.4184 271.7103 14.95062894104288
LEMUR-2-STELLA          
1 60533U 24149BT  26197.19850837  .00005213  00000+0  30425-3 0  9990
2 60533  97.6736 279.7913 0001252 119.4240 240.7115 15.12381661104881
SATELIOT_2              
1 60534U 24149BU  26196.17777105  .00000557  00000+0  54148-4 0  9999
2 60534  97.6824 270.6236 0001589  75.7302 284.4096 14.96459257104155
NIGHTJAR                
1 60535U 24149BV  26197.16103164  .00002201  00000+0  18569-3 0  9992
2 60535  97.6841 273.4616 0002683  94.3383 265.8146 14.99173626147219
LEMUR-2-MARHISYAM       
1 60536U 24149BW  26196.99124778  .00005792  00000+0  34321-3 0  9999
2 60536  97.6879 280.0603 0002350  68.5739 291.5741 15.11786231104835
SATELIOT_4              
1 60537U 24149BX  26197.11886307  .00000301  00000+0  31331-4 0  9998
2 60537  97.6729 271.0551 0000955 338.0877  22.0303 14.96759564104303
PICO-02A021             
1 60538U 24149BY  26196.18744497  .00001915  00000+0  14501-3 0  9999
2 60538  97.6742 274.7818 0003651 280.3621  79.7192 15.03488388103943
ICEYE-X43               
1 60539U 24149BZ  26197.18565992  .00000655  00000+0  57760-4 0  9997
2 60539  97.6797 273.7615 0006458 343.3894  16.7117 14.99787771104466
HAWK-10A                
1 60540U 24149CA  26197.12067654  .00000136  00000+0  16959-4 0  9994
2 60540  97.6889 272.5349 0003009 359.2297   0.8919 14.96592852104312
UMBRA-09                
1 60541U 24149CB  26197.19406176  .00008827  00000+0  42666-3 0  9996
2 60541  97.6973 284.9133 0002070 200.1569 159.9583 15.18868590105121
QPS-SAR-8 (AMATERU-IV)  
1 60542U 24149CC  26197.12934507  .00001797  00000+0  13314-3 0  9991
2 60542  97.6657 276.0405 0003608  41.6264 318.5236 15.04398931104627
ARCTIC WEATHER SATELLITE
1 60543U 24149CD  26197.10157582  .00000302  00000+0  37048-4 0  9992
2 60543  97.6791 266.7390 0002788  48.7932 311.3526 14.89804242103603
CAPELLA-15 (ACADIA-5)   
1 60544U 24149CE  26196.21437038  .00002389  00000+0  23867-3 0  9991
2 60544  97.6759 268.4148 0003244 341.5394  18.5707 14.92405560104031
HAWK-10B                
1 60545U 24149CF  26197.12054037  .00000153  00000+0  18435-4 0  9990
2 60545  97.6807 271.8607 0005352  11.0626 349.0713 14.96591750104314
ICEYE-X39               
1 60546U 24149CG  26196.76179354  .00002258  00000+0  18588-3 0  9996
2 60546  97.6790 273.4005 0006930  45.0882 315.0903 15.00075595104404
UMBRA-10                
1 60547U 24149CH  26197.19360684  .00008620  00000+0  41673-3 0  9993
2 60547  97.6979 284.9427 0001691 165.4264 194.7019 15.18867080105137
ICEYE-X33               
1 60548U 24149CJ  26197.16986860  .00002676  00000+0  21496-3 0  9997
2 60548  97.7367 276.1660 0001917  73.9608 286.1827 15.00890120104558
ICEYE-X40               
1 60549U 24149CK  26196.15704842  .00001435  00000+0  12621-3 0  9996
2 60549  97.6795 272.2031 0003997   6.4770 353.6503 14.98070105104261
SATELIOT_1              
1 60550U 24149CL  26197.14777742  .00001120  00000+0  99358-4 0  9991
2 60550  97.6733 272.5638 0005536 349.8868  10.2242 14.98164838104403
BRO-14                  
1 60551U 24149CM  26197.15309765  .00000966  00000+0  90684-4 0  9999
2 60551  97.6864 272.4099 0006655  15.2569 344.8852 14.96237724104321
