OBJECT_NAME,OBJECT_ID,EPOCH,MEAN_MOTION,ECCENTRICITY,INCLINATION,RA_OF_ASC_NODE,ARG_OF_PERICENTER,MEAN_ANOMALY,EPHEMERIS_TYPE,CLASSIFICATION_TYPE,NORAD_CAT_ID,ELEMENT_SET_NO,REV_AT_EPOCH,BSTAR,MEAN_MOTION_DOT,MEAN_MOTION_DDOT
IPERDRONE.0,2024-149BE,2026-07-16T04:46:33.657024,15.71187423,.0004128,97.3771,291.9401,166.4736,193.6638,0,U,60520,999,10746,.43767E-3,.55332E-3,0
TRANSPORTER-11 OBJECT BF,2024-149BF,2026-07-15T19:13:54.260544,16.11780645,.00109313,97.3807,295.4195,249.1592,110.8522,0,U,60521,999,10764,.97568559E-3,.1016119E-1,.63981261E-3
CONNECTA IOT-2,2024-149BG,2026-07-16T03:12:48.019104,15.24198613,.0005656,97.3834,274.8436,209.0180,151.0744,0,U,60522,999,10630,.95808E-4,.2264E-4,0
CONNECTA IOT-4,2024-149BJ,2026-07-15T17:56:43.217088,15.43184698,.00060442,97.3799,281.4758,173.3222,186.8107,0,U,60524,999,10673,.30099881E-3,.13274E-3,0
ORESAT0.5,2024-149BK,2026-07-15T17:36:50.357088,15.46122446,.00062317,97.3728,283.1914,162.7489,197.3973,0,U,60525,999,10688,.27892768E-3,.13587E-3,0
DEIMOS,2024-149BL,2026-07-15T18:46:47.065152,15.45207671,.00060236,97.3782,283.3664,168.4372,191.7016,0,U,60526,999,10686,.27814663E-3,.1313E-3,0
CUAVA-2,2024-149BM,2026-07-16T04:41:03.051744,15.36747238,.0006959,97.3722,278.7754,176.0247,184.1053,0,U,60527,999,10662,.18464E-3,.6551E-4,0
ERNST,2024-149BN,2026-07-16T00:39:50.109120,15.39907616,.0006265,97.3808,280.9773,176.3954,183.7338,0,U,60528,999,10671,.19725E-3,.7765E-4,0
TORO,2024-149BQ,2026-07-16T03:00:48.593088,14.96517485,.0001134,97.6775,271.2533,101.3883,258.7466,0,U,60530,999,10428,.48254E-4,.491E-5,0
HYPSO-2,2024-149BR,2026-07-15T10:33:12.149280,14.98934859,.00017831,97.6841,272.2902,98.4846,261.6579,0,U,60531,999,10428,.12280414E-3,.1427E-4,0
LEMU NGE,2024-149BS,2026-07-16T03:59:14.997120,14.95062894,.0000579,97.6837,271.5403,88.4184,271.7103,0,U,60532,999,10428,.11353E-3,.1187E-4,0
LEMUR-2-STELLA,2024-149BT,2026-07-16T04:45:51.123168,15.12381661,.0001252,97.6736,279.7913,119.4240,240.7115,0,U,60533,999,10488,.30425E-3,.5213E-4,0
SATELIOT_2,2024-149BU,2026-07-15T04:15:59.418720,14.96459257,.00015894,97.6824,270.6236,75.7302,284.4096,0,U,60534,999,10415,.54147991E-4,.557E-5,0
NIGHTJAR,2024-149BV,2026-07-16T03:51:53.133696,14.99173626,.0002683,97.6841,273.4616,94.3383,265.8146,0,U,60535,999,14721,.18569E-3,.2201E-4,0
LEMUR-2-MARHISYAM,2024-149BW,2026-07-15T23:47:23.808192,15.11786231,.000235,97.6879,280.0603,68.5739,291.5741,0,U,60536,999,10483,.34321E-3,.5792E-4,0
SATELIOT_4,2024-149BX,2026-07-16T02:51:09.769248,14.96759564,.0000955,97.6729,271.0551,338.0877,22.0303,0,U,60537,999,10430,.31331E-4,.301E-5,0
PICO-02A021,2024-149BY,2026-07-15T04:29:55.245408,15.03488388,.00036514,97.6742,274.7818,280.3621,79.7192,0,U,60538,999,10394,.1450119E-3,.1915E-4,0
ICEYE-X43,2024-149BZ,2026-07-16T04:27:21.017088,14.99787771,.0006458,97.6797,273.7615,343.3894,16.7117,0,U,60539,999,10446,.5776E-4,.655E-5,0
HAWK-10A,2024-149CA,2026-07-16T02:53:46.453056,14.96592852,.0003009,97.6889,272.5349,359.2297,0.8919,0,U,60540,999,10431,.16959E-4,.136E-5,0
UMBRA-09,2024-149CB,2026-07-16T04:39:26.936064,15.18868590,.000207,97.6973,284.9133,200.1569,159.9583,0,U,60541,999,10512,.42666E-3,.8827E-4,0
QPS-SAR-8 (AMATERU-IV),2024-149CC,2026-07-16T03:06:15.414048,15.04398931,.0003608,97.6657,276.0405,41.6264,318.5236,0,U,60542,999,10462,.13314E-3,.1797E-4,0
ARCTIC WEATHER SATELLITE,2024-149CD,2026-07-16T02:26:16.150848,14.89804242,.0002788,97.6791,266.7390,48.7932,311.3526,0,U,60543,999,10360,.37048E-4,.302E-5,0
CAPELLA-15 (ACADIA-5),2024-149CE,2026-07-15T05:08:41.600832,14.92405560,.0003244,97.6759,268.4148,341.5394,18.5707,0,U,60544,999,10403,.23867E-3,.2389E-4,0
HAWK-10B,2024-149CF,2026-07-16T02:53:34.687968,14.96591750,.0005352,97.6807,271.8607,11.0626,349.0713,0,U,60545,999,10431,.18435E-4,.153E-5,0
ICEYE-X39,2024-149CG,2026-07-15T18:16:58.961856,15.00075595,.000693,97.6790,273.4005,45.0882,315.0903,0,U,60546,999,10440,.18588E-3,.2258E-4,0
UMBRA-10,2024-149CH,2026-07-16T04:38:47.630976,15.18867080,.0001691,97.6979,284.9427,165.4264,194.7019,0,U,60547,999,10513,.41673E-3,.862E-4,0
ICEYE-X33,2024-149CJ,2026-07-16T04:04:36.647040,15.00890120,.0001917,97.7367,276.1660,73.9608,286.1827,0,U,60548,999,10455,.21496E-3,.2676E-4,0
ICEYE-X40,2024-149CK,2026-07-15T03:46:08.983488,14.98070105,.00039977,97.6795,272.2031,6.4770,353.6503,0,U,60549,999,10426,.12620525E-3,.1435E-4,0
SATELIOT_1,2024-149CL,2026-07-16T03:32:47.969088,14.98164838,.0005536,97.6733,272.5638,349.8868,10.2242,0,U,60550,999,10440,.99358E-4,.112E-4,0
BRO-14,2024-149CM,2026-07-16T03:40:27.636960,14.96237724,.0006655,97.6864,272.4099,15.2569,344.8852,0,U,60551,999,10432,.90684E-4,.966E-5,0
